{"type": "FeatureCollection", "features": [ {"type": "Feature", "properties": {"norad_id": 52912, "name": "GAOFEN-12 03", "group": "resource", "lat": 7.782788653962673, "lon": -118.23906082316698, "alt_km": 631.472597782611, "timestamp": "2025-12-21T16:47:54.386742+00:00", "meta": {"OBJECT_NAME": "GAOFEN-12 03", "OBJECT_ID": "2022-069A", "EPOCH": "2025-12-21T13:31:01.193664", "MEAN_MOTION": 14.79625351, "ECCENTRICITY": 0.0001934, "INCLINATION": 97.8488, "RA_OF_ASC_NODE": 242.7077, "ARG_OF_PERICENTER": 51.7632, "MEAN_ANOMALY": 308.3754, "EPHEMERIS_TYPE": 0, "CLASSIFICATION_TYPE": "U", "NORAD_CAT_ID": 52912, "ELEMENT_SET_NO": 999, "REV_AT_EPOCH": 18834, "BSTAR": 2.0988e-05, "MEAN_MOTION_DOT": 1.07e-06, "MEAN_MOTION_DDOT": 0}, "tle": {"line1": "1 52912U 22069A   25355.56320826  .00000107  00000+0  20988-4 0  9998", "line2": "2 52912  97.8488 242.7077 0001934  51.7632 308.3754 14.79625351188342"}}, "geometry": {"type": "Point", "coordinates": [-118.23906082316698, 7.782788653962673]}}, {"type": "Feature", "properties": {"norad_id": 54754, "name": "SWOT", "group": "resource", "lat": -50.31619705711216, "lon": -100.46646912872238, "alt_km": 900.1263873584458, "timestamp": "2025-12-21T16:47:54.386752+00:00", "meta": {"OBJECT_NAME": "SWOT", "OBJECT_ID": "2022-173A", "EPOCH": "2025-12-21T10:11:12.098112", "MEAN_MOTION": 14.00168037, "ECCENTRICITY": 3.62e-05, "INCLINATION": 77.6109, "RA_OF_ASC_NODE": 275.2666, "ARG_OF_PERICENTER": 87.2927, "MEAN_ANOMALY": 272.8266, "EPHEMERIS_TYPE": 0, "CLASSIFICATION_TYPE": "U", "NORAD_CAT_ID": 54754, "ELEMENT_SET_NO": 999, "REV_AT_EPOCH": 15427, "BSTAR": 2.0449e-06, "MEAN_MOTION_DOT": 0, "MEAN_MOTION_DDOT": 0}, "tle": {"line1": "1 54754U 22173A   25355.42444558  .00000000  00000+0  20449-5 0  9999", "line2": "2 54754  77.6109 275.2666 0000362  87.2927 272.8266 14.00168037154279"}}, "geometry": {"type": "Point", "coordinates": [-100.46646912872238, -50.31619705711216]}}, {"type": "Feature", "properties": {"norad_id": 57654, "name": "GAOFEN-12 04", "group": "resource", "lat": -0.7801833859214771, "lon": 91.21285646025783, "alt_km": 633.5203759174501, "timestamp": "2025-12-21T16:47:54.386761+00:00", "meta": {"OBJECT_NAME": "GAOFEN-12 04", "OBJECT_ID": "2023-123A", "EPOCH": "2025-12-21T12:44:19.770432", "MEAN_MOTION": 14.7972326, "ECCENTRICITY": 0.0001221, "INCLINATION": 97.9128, "RA_OF_ASC_NODE": 271.1548, "ARG_OF_PERICENTER": 77.5765, "MEAN_ANOMALY": 282.5584, "EPHEMERIS_TYPE": 0, "CLASSIFICATION_TYPE": "U", "NORAD_CAT_ID": 57654, "ELEMENT_SET_NO": 999, "REV_AT_EPOCH": 12635, "BSTAR": 0.00014554, "MEAN_MOTION_DOT": 1.042e-05, "MEAN_MOTION_DDOT": 0}, "tle": {"line1": "1 57654U 23123A   25355.53078438  .00001042  00000+0  14554-3 0  9994", "line2": "2 57654  97.9128 271.1548 0001221  77.5765 282.5584 14.79723260126358"}}, "geometry": {"type": "Point", "coordinates": [91.21285646025783, -0.7801833859214771]}}, {"type": "Feature", "properties": {"norad_id": 59065, "name": "PARS 1", "group": "resource", "lat": 32.88850342365155, "lon": -38.03987846736122, "alt_km": 432.7845722637767, "timestamp": "2025-12-21T16:47:54.386772+00:00", "meta": {"OBJECT_NAME": "PARS 1", "OBJECT_ID": "2024-039Q", "EPOCH": "2025-12-21T11:58:49.012896", "MEAN_MOTION": 15.41158221, "ECCENTRICITY": 0.0011967, "INCLINATION": 97.4644, "RA_OF_ASC_NODE": 326.6186, "ARG_OF_PERICENTER": 45.6065, "MEAN_ANOMALY": 314.6159, "EPHEMERIS_TYPE": 0, "CLASSIFICATION_TYPE": "U", "NORAD_CAT_ID": 59065, "ELEMENT_SET_NO": 999, "REV_AT_EPOCH": 10123, "BSTAR": 0.00023452, "MEAN_MOTION_DOT": 9.657e-05, "MEAN_MOTION_DDOT": 0}, "tle": {"line1": "1 59065U 24039Q   25355.49917839  .00009657  00000+0  23452-3 0  9998", "line2": "2 59065  97.4644 326.6186 0011967  45.6065 314.6159 15.41158221101239"}}, "geometry": {"type": "Point", "coordinates": [-38.03987846736122, 32.88850342365155]}}, {"type": "Feature", "properties": {"norad_id": 59371, "name": "RESURS-P 4", "group": "resource", "lat": -65.8552549468755, "lon": 105.33334514224528, "alt_km": 477.31744672115474, "timestamp": "2025-12-21T16:47:54.386782+00:00", "meta": {"OBJECT_NAME": "RESURS-P 4", "OBJECT_ID": "2024-061A", "EPOCH": "2025-12-21T12:35:21.570144", "MEAN_MOTION": 15.32149972, "ECCENTRICITY": 9.56e-05, "INCLINATION": 97.256, "RA_OF_ASC_NODE": 301.6748, "ARG_OF_PERICENTER": 65.3587, "MEAN_ANOMALY": 294.7755, "EPHEMERIS_TYPE": 0, "CLASSIFICATION_TYPE": "U", "NORAD_CAT_ID": 59371, "ELEMENT_SET_NO": 999, "REV_AT_EPOCH": 9655, "BSTAR": 0.00011029, "MEAN_MOTION_DOT": 3.347e-05, "MEAN_MOTION_DDOT": 0}, "tle": {"line1": "1 59371U 24061A   25355.52455521  .00003347  00000+0  11029-3 0  9999", "line2": "2 59371  97.2560 301.6748 0000956  65.3587 294.7755 15.32149972 96556"}}, "geometry": {"type": "Point", "coordinates": [105.33334514224528, -65.8552549468755]}}, {"type": "Feature", "properties": {"norad_id": 59625, "name": "LEGION 1", "group": "resource", "lat": -30.05223280595351, "lon": 74.64574037345994, "alt_km": 520.775503277182, "timestamp": "2025-12-21T16:47:54.386812+00:00", "meta": {"OBJECT_NAME": "LEGION 1", "OBJECT_ID": "2024-081A", "EPOCH": "2025-12-21T10:35:51.965088", "MEAN_MOTION": 15.16557169, "ECCENTRICITY": 0.0003627, "INCLINATION": 97.5205, "RA_OF_ASC_NODE": 70.006, "ARG_OF_PERICENTER": 277.6054, "MEAN_ANOMALY": 82.4767, "EPHEMERIS_TYPE": 0, "CLASSIFICATION_TYPE": "U", "NORAD_CAT_ID": 59625, "ELEMENT_SET_NO": 999, "REV_AT_EPOCH": 9059, "BSTAR": 0.00020113, "MEAN_MOTION_DOT": 3.857e-05, "MEAN_MOTION_DDOT": 0}, "tle": {"line1": "1 59625U 24081A   25355.44157367  .00003857  00000+0  20113-3 0  9991", "line2": "2 59625  97.5205  70.0060 0003627 277.6054  82.4767 15.16557169 90592"}}, "geometry": {"type": "Point", "coordinates": [74.64574037345994, -30.05223280595351]}}, {"type": "Feature", "properties": {"norad_id": 59626, "name": "LEGION 2", "group": "resource", "lat": 29.762485472276637, "lon": -105.31717403742394, "alt_km": 515.7987338638832, "timestamp": "2025-12-21T16:47:54.386826+00:00", "meta": {"OBJECT_NAME": "LEGION 2", "OBJECT_ID": "2024-081B", "EPOCH": "2025-12-21T11:23:19.389408", "MEAN_MOTION": 15.16571592, "ECCENTRICITY": 0.0005656, "INCLINATION": 97.5209, "RA_OF_ASC_NODE": 70.1266, "ARG_OF_PERICENTER": 255.6629, "MEAN_ANOMALY": 104.3976, "EPHEMERIS_TYPE": 0, "CLASSIFICATION_TYPE": "U", "NORAD_CAT_ID": 59626, "ELEMENT_SET_NO": 999, "REV_AT_EPOCH": 9060, "BSTAR": 0.00019771, "MEAN_MOTION_DOT": 3.793e-05, "MEAN_MOTION_DDOT": 0}, "tle": {"line1": "1 59626U 24081B   25355.47452997  .00003793  00000+0  19771-3 0  9999", "line2": "2 59626  97.5209  70.1266 0005656 255.6629 104.3976 15.16571592 90608"}}, "geometry": {"type": "Point", "coordinates": [-105.31717403742394, 29.762485472276637]}}, {"type": "Feature", "properties": {"norad_id": 60182, "name": "ALOS-4 (DAICHI-4)", "group": "resource", "lat": 52.70615414237107, "lon": 79.88415480358894, "alt_km": 625.3633540667215, "timestamp": "2025-12-21T16:47:54.386837+00:00", "meta": {"OBJECT_NAME": "ALOS-4 (DAICHI-4)", "OBJECT_ID": "2024-123A", "EPOCH": "2025-12-20T19:27:23.067360", "MEAN_MOTION": 14.79476697, "ECCENTRICITY": 0.00013881, "INCLINATION": 97.9224, "RA_OF_ASC_NODE": 89.5428, "ARG_OF_PERICENTER": 101.339, "MEAN_ANOMALY": 258.7977, "EPHEMERIS_TYPE": 0, "CLASSIFICATION_TYPE": "U", "NORAD_CAT_ID": 60182, "ELEMENT_SET_NO": 999, "REV_AT_EPOCH": 7950, "BSTAR": 0.00018374076, "MEAN_MOTION_DOT": 1.321e-05, "MEAN_MOTION_DDOT": 0}, "tle": {"line1": "1 60182U 24123A   25354.81068365  .00001321  00000+0  18374-3 0  9997", "line2": "2 60182  97.9224  89.5428 0001388 101.3390 258.7977 14.79476697 79501"}}, "geometry": {"type": "Point", "coordinates": [79.88415480358894, 52.70615414237107]}}, {"type": "Feature", "properties": {"norad_id": 60452, "name": "LEGION 3", "group": "resource", "lat": -43.486703931388796, "lon": 153.74103255372256, "alt_km": 511.3998987571231, "timestamp": "2025-12-21T16:47:54.386847+00:00", "meta": {"OBJECT_NAME": "LEGION 3", "OBJECT_ID": "2024-146A", "EPOCH": "2025-12-21T04:35:55.463424", "MEAN_MOTION": 15.15842235, "ECCENTRICITY": 0.0015669, "INCLINATION": 45.0016, "RA_OF_ASC_NODE": 264.8217, "ARG_OF_PERICENTER": 244.0997, "MEAN_ANOMALY": 115.8266, "EPHEMERIS_TYPE": 0, "CLASSIFICATION_TYPE": "U", "NORAD_CAT_ID": 60452, "ELEMENT_SET_NO": 999, "REV_AT_EPOCH": 7501, "BSTAR": 0.00019211, "MEAN_MOTION_DOT": 3.481e-05, "MEAN_MOTION_DDOT": 0}, "tle": {"line1": "1 60452U 24146A   25355.19161416  .00003481  00000+0  19211-3 0  9995", "line2": "2 60452  45.0016 264.8217 0015669 244.0997 115.8266 15.15842235 75015"}}, "geometry": {"type": "Point", "coordinates": [153.74103255372256, -43.486703931388796]}}, {"type": "Feature", "properties": {"norad_id": 60453, "name": "LEGION 4", "group": "resource", "lat": -43.1917805541349, "lon": -116.38277200159919, "alt_km": 523.3161231616823, "timestamp": "2025-12-21T16:47:54.386859+00:00", "meta": {"OBJECT_NAME": "LEGION 4", "OBJECT_ID": "2024-146B", "EPOCH": "2025-12-21T10:55:54.687648", "MEAN_MOTION": 15.15907588, "ECCENTRICITY": 0.0008593, "INCLINATION": 45.0392, "RA_OF_ASC_NODE": 355.1829, "ARG_OF_PERICENTER": 358.3798, "MEAN_ANOMALY": 1.7052, "EPHEMERIS_TYPE": 0, "CLASSIFICATION_TYPE": "U", "NORAD_CAT_ID": 60453, "ELEMENT_SET_NO": 999, "REV_AT_EPOCH": 7390, "BSTAR": 0.00022955, "MEAN_MOTION_DOT": 4.212e-05, "MEAN_MOTION_DDOT": 0}, "tle": {"line1": "1 60453U 24146B   25355.45549407  .00004212  00000+0  22955-3 0  9997", "line2": "2 60453  45.0392 355.1829 0008593 358.3798   1.7052 15.15907588 73907"}}, "geometry": {"type": "Point", "coordinates": [-116.38277200159919, -43.1917805541349]}}]}